AEROCUBE 6A             
1 40045U 14033AM  24287.74262773  .00012401  00000+0  13825-2 0  9993
2 40045  97.6764  96.8074 0047267 251.5488 108.0587 14.86367643555380
AEROCUBE 6B             
1 40046U 14033AN  24288.51389173  .00011388  00000+0  12417-2 0  9993
2 40046  97.6739  96.3704 0045926 243.7548 115.8945 14.87335275555941
CANX-4                  
1 40055U 14034C   24288.51292919  .00002939  00000+0  40618-3 0  9992
2 40055  98.3847 128.2527 0013467 164.8809 195.2806 14.78871499554215
CANX-5                  
1 40056U 14034D   24287.77305125  .00003234  00000+0  44608-3 0  9996
2 40056  98.3852 127.4912 0013421 167.3444 192.8105 14.78878151544883
UKUBE-1                 
1 40074U 14037F   24287.71153158  .00016995  00000+0  14619-2 0  9996
2 40074  98.3469 225.2099 0006642  61.8306 298.3585 14.97455859556493
BRITE-PL2 (HEWELIUSZ)   
1 40119U 14049B   24287.99367523  .00004389  00000+0  45794-3 0  9995
2 40119  97.8859  27.2349 0014865 336.8405  23.2140 14.90189498550356
AEROCUBE 5C             
1 40965U 15058B   24288.17584188  .00008327  00000+0  72117-3 0  9999
2 40965  64.7718 355.8979 0191163 272.5739  85.3501 14.84646415274683
AEROCUBE 7              
1 40966U 15058C   24288.15950493  .00009764  00000+0  80661-3 0  9993
2 40966  64.7686 348.5057 0185193 272.2421  85.7496 14.86971452274800
FOX-1A (AO-85)          
1 40967U 15058D   24287.81244179  .00009127  00000+0  80609-3 0  9998
2 40967  64.7793  11.3239 0189484 268.4179  89.5218 14.84066893 22583
SINOD-D 1               
1 40968U 15058E   24287.60842320  .00013341  00000+0  11157-2 0  9992
2 40968  64.7796   3.4736 0182910 267.5167  90.4993 14.86599473 25407
SNAP-3 ALICE            
1 40970U 15058G   24287.79977163  .00031729  00000+0  18767-2 0  9993
2 40970  64.7693 312.2484 0146068 266.1078  92.3331 15.02720788 23563
LMRST-SAT               
1 40971U 15058H   24287.65771849  .00010076  00000+0  88586-3 0  9991
2 40971  64.7793   7.3531 0190885 269.8595  88.0641 14.83984133 22569
SNAP-3 EDDIE            
1 40972U 15058J   24287.77969834  .00032043  00000+0  18705-2 0  9991
2 40972  64.7664 305.4687 0146168 267.0093  91.4291 15.03157933 25665
PROPCUBE 3              
1 40973U 15058K   24288.20217840  .00009990  00000+0  83940-3 0  9993
2 40973  64.7730 352.3221 0187011 271.1155  86.8535 14.86113833 23705
BISONSAT                
1 40974U 15058L   24288.53655951  .00021668  00000+0  14901-2 0  9995
2 40974  64.7673 320.9119 0163551 269.0362  89.2011 14.95648770 23583
SNAP-3 JIMI             
1 40975U 15058M   24288.14589039  .00013756  00000+0  10633-2 0  9993
2 40975  64.7704 338.5564 0177190 270.2407  87.8402 14.90109058 22736
PROPCUBE 1 (FLORA)      
1 40976U 15058N   24287.88081940  .00008427  00000+0  77299-3 0  9993
2 40976  64.7778  22.7570 0189502 271.0600  86.8803 14.82739144 25385
SINOD-D 3               
1 40977U 15058P   24287.62787177  .00012443  00000+0  10809-2 0  9997
2 40977  64.7767  15.5928 0182879 270.3836  87.6320 14.85263486 23604
HORYU-4                 
1 41340U 16012D   24288.16238918  .00022371  00000+0  94705-3 0  9996
2 41340  31.0015 277.4652 0007870 118.5234 241.6201 15.21975301476257
RAVAN                   
1 41849U 16067B   24288.12100915  .00017764  00000+0  86172-3 0  9990
2 41849  98.0648 113.1805 0011790 347.0477  13.0451 15.18510567434006
CELTEE 1                
1 41850U 16067C   24287.96285438  .00011266  00000+0  71071-3 0  9990
2 41850  98.1092 103.8512 0001571 123.2179 236.9199 15.09290965433328
OPTICUBE 04             
1 41851U 16067D   24287.75671951  .00006703  00000+0  48383-3 0  9997
2 41851  98.0862  97.8648 0017836  21.5853 338.6120 15.04339079433054
AEROCUBE 8D             
1 41852U 16067E   24287.44235849  .00015475  00000+0  92862-3 0  9993
2 41852  98.1138 103.4004 0005408  71.7061 288.4755 15.11023684433238
AEROCUBE 8C             
1 41853U 16067F   24288.05415374  .00013124  00000+0  78806-3 0  9996
2 41853  98.0950 102.3387 0007217   3.9642 356.1642 15.11031207433311
PROMETHEUS 2-1          
1 41854U 16067G   24288.50636506  .00031800  00000+0  12875-2 0  9993
2 41854  98.0993 112.4338 0010809  10.0616 350.0834 15.24573514433860
PROMETHEUS 2-3          
1 41855U 16067H   24287.78470135  .00034039  00000+0  13833-2 0  9999
2 41855  98.0942 111.0276 0009228  22.7873 337.3771 15.24446488433754
CORVUS BC2              
1 42846U 17042X   24288.05209605  .00007882  00000+0  64539-3 0  9993
2 42846  97.3765 106.6858 0008961  33.3646 326.8141 14.99524895395240
CORVUS BC1              
1 42847U 17042Y   24288.06740440  .00007037  00000+0  57419-3 0  9993
2 42847  97.3778 107.1217 0009388  25.0584 335.1094 14.99693675395268
MIRATA                  
1 43015U 17073C   24288.49340709  .00037502  00000+0  14333-2 0  9993
2 43015  97.5743 172.4038 0144677 210.0236 149.2646 15.17218984374358
MAKERSAT 0              
1 43016U 17073D   24287.65891270  .00019899  00000+0  10280-2 0  9991
2 43016  97.5551 163.5765 0176363 240.4310 117.9239 15.03768937373689
SIRION PATHFINDER-2     
1 43759U 18099B   24287.86967162  .00009072  00000+0  63964-3 0  9991
2 43759  97.5164 340.7584 0009087 237.3690 122.6660 15.05174005320340
CORVUS BC4              
1 43767U 18099K   24288.09851521  .00009253  00000+0  66947-3 0  9992
2 43767  97.4980 337.8063 0009012 302.5031  57.5324 15.04196196320252
MOVE-II                 
1 43780U 18099Y   24287.74489010  .00046286  00000+0  18141-2 0  9997
2 43780  97.5058 350.2154 0004376 277.3714  82.7026 15.25612436320936
SPACEBEE-7              
1 43816U 18099BL  24287.69209470  .00024532  00000+0  12079-2 0  9995
2 43816  97.5348 350.3101 0008057 230.8010 129.2509 15.17942223320343
SPACEBEE-6              
1 43818U 18099BN  24288.17486159  .00103973  00000+0  24645-2 0  9991
2 43818  97.5249 358.9023 0007242 224.4602 135.6064 15.41325035321108
SHIELDS 1               
1 43850U 18104B   24288.02095753  .00029049  00000+0  64069-3 0  9990
2 43850  85.0250 202.1526 0009613   7.4792 352.6603 15.43710468324450
SONATE                  
1 44400U 19038Q   24287.75509398  .00042827  00000+0  95898-3 0  9996
2 44400  97.7161 287.8586 0015860  52.3622 307.9061 15.43200367292302
LUCKY-7                 
1 44406U 19038W   24287.55318715  .00131618  00000+0  13340-2 0  9999
2 44406  97.6996 294.1996 0010100  45.2657 314.9421 15.64762826292720
DUCHIFAT-3              
1 44854U 19089C   24288.34118655  .00032197  00000+0  13177-2 0  9991
2 44854  36.9542  42.3619 0008330  30.4009 329.7222 15.23442988266334
M2 PATHFINDER           
1 45727U 20037E   24287.76335980  .00006532  00000+0  54579-3 0  9999
2 45727  97.7802 103.7459 0012049  90.5219 269.7385 14.98805342233698
NETSAT-4                
1 46504U 20068U   24288.13274898  .00021170  00000+0  99760-3 0  9995
2 46504  97.8181 248.8856 0007238 329.5339  30.5473 15.19510676222201
NETSAT-3                
1 46505U 20068V   24287.83425273  .00019868  00000+0  95312-3 0  9997
2 46505  97.8166 247.9343 0007375 343.8503  16.2494 15.18903079222149
NETSAT-1                
1 46506U 20068W   24287.77527888  .00016665  00000+0  85956-3 0  9991
2 46506  97.8188 247.0118 0007198 355.6429   4.4739 15.16407016222077
NETSAT-2                
1 46507U 20068X   24287.88927259  .00018807  00000+0  88801-3 0  9992
2 46507  97.8166 248.2333 0006388   6.4591 353.6724 15.19473159222119
WILDTRACKCUBE-SIMBA     
1 47941U 21022K   24288.47758660  .00027765  00000+0  10255-2 0  9990
2 47941  97.4434 184.5061 0016584  84.9743 275.3388 15.27579292196632
GRBALPHA                
1 47959U 21022AD  24288.47666774  .00045428  00000+0  13162-2 0  9999
2 47959  97.4428 187.3736 0015272  76.6096 283.6849 15.35307524195646
BEESAT-8                
1 48085U 21022AP  24288.55160064  .00076798  00000+0  15476-2 0  9994
2 48085  97.4678 192.7393 0013292  67.1315 293.1336 15.46197314196220
LEDSAT                  
1 49069U 21073D   24288.18473864  .00035230  00000+0  11208-2 0  9992
2 49069  97.4252 358.9741 0016245 219.1058 140.9011 15.32383920174622
ROBUSTA-1F (MTCUBE 2)   
1 53109U 22080E   24288.00057659 -.00000003  00000+0  00000+0 0  9998
2 53109  70.1196 150.8167 0008263  62.3027 297.8470  6.42584072 52799
SITRO-AIS 5 (KATYS)     
1 57176U 23091L   24288.50747296  .00013845  00000+0  80521-3 0  9994
2 57176  97.5985 339.8308 0017781  75.5607 284.7595 15.12047003 71505
SITRO-AIS 6 (CHIRKIN)   
1 57192U 23091AC  24288.48871694  .00013823  00000+0  80326-3 0  9998
2 57192  97.5988 339.8427 0017738  75.2576 285.0619 15.12079295 71501
SITRO-AIS 8 (ANOKHIN)   
1 57193U 23091AD  24288.48916848  .00014883  00000+0  85049-3 0  9994
2 57193  97.5985 339.9850 0017351  76.0208 284.2951 15.12670523 71514
SITRO-AIS 7 (FARTUSHNIY)
1 57194U 23091AE  24288.43200925  .00014485  00000+0  84324-3 0  9995
2 57194  97.5985 339.7561 0017531  76.0704 284.2475 15.12006634 71497
SITRO-AIS 10 (BURDAEV)  
1 57199U 23091AK  24288.43834197  .00017677  00000+0  95155-3 0  9994
2 57199  97.5997 341.2151 0012512  65.4864 294.7671 15.14830555 71584
SITRO-AIS 9 (SHCHUKIN)  
1 57201U 23091AM  24288.50473179  .00017551  00000+0  94577-3 0  9993
2 57201  97.5993 341.2501 0012494  65.1213 295.1316 15.14794676 71592
SITRO-AIS 12 (SMIRENNIY)
1 57204U 23091AQ  24288.51796514  .00016693  00000+0  89480-3 0  9991
2 57204  97.6000 341.4433 0012276  59.7150 300.5294 15.14994327 71601
SITRO-AIS 11 (SHEFFER)  
1 57208U 23091AU  24288.49546523  .00015783  00000+0  84332-3 0  9995
2 57208  97.6002 341.4591 0012168  60.0414 300.2024 15.15121627 71604
ROBUSTA-1E (ENSO)       
1 58470U 23185J   24288.52643249  .00032339  00000+0  10925-2 0  9990
2 58470  97.4128 354.4176 0010642 211.7933 148.2666 15.30542006 48344
